[{"OBJECT_NAME":"TISAT 1","OBJECT_ID":"2010-035E","EPOCH":"2026-03-09T18:10:07.877568","MEAN_MOTION":15.27628633,"ECCENTRICITY":0.00013432,"INCLINATION":98.0645,"RA_OF_ASC_NODE":6.8512,"ARG_OF_PERICENTER":159.303,"MEAN_ANOMALY":200.8262,"EPHEMERIS_TYPE":0,"CLASSIFICATION_TYPE":"U","NORAD_CAT_ID":36799,"ELEMENT_SET_NO":999,"REV_AT_EPOCH":85250,"BSTAR":0.00091004793,"MEAN_MOTION_DOT":0.00024554,"MEAN_MOTION_DDOT":0},{"OBJECT_NAME":"STARLINK-36475","OBJECT_ID":"2026-003S","EPOCH":"2026-03-09T11:23:45.797568","MEAN_MOTION":15.27598575,"ECCENTRICITY":0.00027501,"INCLINATION":43.0003,"RA_OF_ASC_NODE":228.0452,"ARG_OF_PERICENTER":293.0154,"MEAN_ANOMALY":67.0408,"EPHEMERIS_TYPE":0,"CLASSIFICATION_TYPE":"U","NORAD_CAT_ID":67350,"ELEMENT_SET_NO":999,"REV_AT_EPOCH":879,"BSTAR":0.0011626147,"MEAN_MOTION_DOT":0.00031889,"MEAN_MOTION_DDOT":0}]
