TISAT 1                 
1 36799U 10035E   26068.75703561  .00024554  00000+0  91005-3 0  9996
2 36799  98.0645   6.8512 0001343 159.3030 200.8262 15.27628633852505
STARLINK-36475          
1 67350U 26003S   26068.47483562  .00031889  00000+0  11626-2 0  9999
2 67350  43.0003 228.0452 0002750 293.0154  67.0408 15.27598575  8797
